SAUDISAT 1C (SO-50)     
1 27607U 02058C   26167.95299985  .00000833  00000+0  11563-3 0  9997
2 27607  64.5510 129.7097 0075272 262.5111  96.7439 14.83046700264420
SAUDISAT 2              
1 28371U 04025F   26167.96026962  .00000198  00000+0  55390-4 0  9997
2 28371  98.5507 167.9363 0023598 298.9959  60.8873 14.56683833165719
SAUDISAT 3              
1 31118U 07012B   26167.85067485  .00000213  00000+0  42656-4 0  9991
2 31118  98.1456 118.2511 0013617 224.9729 135.0375 14.71425499 27695
PISAT                   
1 41784U 16059B   26168.00778100  .00000691  00000+0  12534-3 0  9994
2 41784  97.8179 168.4682 0028366 203.3501 156.6419 14.68983223519712
FLYING LAPTOP           
1 42831U 17042G   26168.18552553  .00002102  00000+0  16791-3 0  9990
2 42831  97.4687 323.7174 0019599 121.7521 238.5617 15.01143957486455
SALSAT                  
1 46495U 20068K   26168.01469823  .00006653  00000+0  23324-3 0  9996
2 46495  97.8847 171.0688 0008038 308.8582  51.1939 15.29798435315333
